SL-16 DEB               
1 39857U 92093LK  22257.25986950  .00001016  00000+0  50687-3 0  9993
2 39857  70.9212 217.2402 0062248 152.3369 208.1090 14.18305082427997